ONEWEB-0271             
1 48989U 21060Y   26168.62683211  .00000092  00000+0  20622-3 0  9994
2 48989  87.9097 228.6858 0001811 101.2669 258.8666 13.16594832239721
ONEWEB-0272             
1 48990U 21060Z   26168.64898882 -.00000028  00000+0 -10611-3 0  9998
2 48990  87.9097 228.6933 0001847  91.0631 269.0712 13.16593088239673
ONEWEB-0273             
1 48991U 21060AA  26168.59516513 -.00000001  00000+0 -37358-4 0  9990
2 48991  87.9099 228.7032 0001949 100.9830 259.1520 13.16594598239642
ONEWEB-0274             
1 48992U 21060AB  26168.62049274  .00000115  00000+0  26634-3 0  9998
2 48992  87.9088 228.7005 0001912  88.9411 271.1939 13.16594033239687
ONEWEB-0275             
1 48993U 21060AC  26168.60941918  .00000111  00000+0  25782-3 0  9992
2 48993  87.9098 228.6918 0001932  96.3819 263.7532 13.16594464239615
ONEWEB-0276             
1 48994U 21060AD  26168.71865866  .00000020  00000+0  19257-4 0  9992
2 48994  87.9097 228.6695 0001983  93.1438 266.9920 13.16594764239647
ONEWEB-0277             
1 48995U 21060AE  26168.65533760 -.00000055  00000+0 -17662-3 0  9998
2 48995  87.9090 228.6910 0001918 101.4576 258.6770 13.16593998239622
ONEWEB-0278             
1 48996U 21060AF  26168.72181039 -.00000059  00000+0 -18741-3 0  9998
2 48996  87.9098 228.6677 0002274  98.9123 261.2265 13.16592906239767
ONEWEB-0279             
1 48997U 21060AG  26168.65374678 -.00000074  00000+0 -22635-3 0  9998
2 48997  87.9096 228.6797 0001785  97.6965 262.4369 13.16594919239680
ONEWEB-0280             
1 48998U 21060AH  26168.66878303  .00000018  00000+0  13465-4 0  9992
2 48998  87.9095 228.6810 0002155 107.3127 252.8239 13.16593525239622
ONEWEB-0281             
1 48999U 21060AJ  26168.59833209  .00000037  00000+0  62565-4 0  9997
2 48999  87.9098 228.6902 0002104  98.2247 261.9122 13.16594823239683
ONEWEB-0282             
1 49000U 21060AK  26168.62840058  .00000037  00000+0  63902-4 0  9991
2 49000  87.9097 228.6925 0001983 101.3468 258.7886 13.16592605239661
ONEWEB-0283             
1 49001U 21060AL  26168.61732894  .00000115  00000+0  26848-3 0  9993
2 49001  87.9095 228.6942 0001865  97.6126 262.5217 13.16594260239677
ONEWEB-0284             
1 49002U 21060AM  26168.61100117  .00000071  00000+0  15191-3 0  9991
2 49002  87.9096 228.6887 0002236 104.7985 255.3394 13.16594620239657
ONEWEB-0285             
1 49075U 21075A   26168.51768481 -.00000140  00000+0 -42585-3 0  9996
2 49075  87.8948 350.5960 0001762  92.4899 267.6431 13.12442670235252
ONEWEB-0286             
1 49076U 21075B   26168.49976623  .00000381  00000+0  10228-2 0  9996
2 49076  87.8938 350.6164 0001977  86.7685 273.3669 13.12442833234602
ONEWEB-0287             
1 49077U 21075C   26168.54633241 -.00000043  00000+0 -14272-3 0  9990
2 49077  87.9134   5.7944 0002243  85.0543 275.0845 13.17649257233673
ONEWEB-0288             
1 49078U 21075D   26168.55241830  .00000025  00000+0  35109-4 0  9992
2 49078  87.8947 350.5826 0002064  92.0356 268.1009 13.12444547235235
ONEWEB-0289             
1 49079U 21075E   26168.50906955  .00000005  00000+0 -21557-4 0  9995
2 49079  87.9137   5.8187 0001882 100.5578 259.5766 13.17649804234248
ONEWEB-0290             
1 49080U 21075F   26168.55815308  .00000017  00000+0  97167-5 0  9996
2 49080  87.9142   5.7807 0001836 104.6942 255.4393 13.17648954233664
ONEWEB-0291             
1 49081U 21075G   26168.54296439  .00000019  00000+0  16857-4 0  9992
2 49081  87.9137   5.7914 0002178  92.9943 267.1437 13.17649013233653
ONEWEB-0293             
1 49082U 21075H   26168.49233211 -.00000016  00000+0 -75340-4 0  9997
2 49082  87.9132   5.8046 0001897  92.6895 267.4453 13.17648651233676
ONEWEB-0294             
1 49083U 21075J   26168.48295934  .00000237  00000+0  62470-3 0  9999
2 49083  87.8948 350.6001 0001833 101.3786 258.7548 13.12444816234615
ONEWEB-0295             
1 49084U 21075K   26168.49149229 -.00000027  00000+0 -10378-3 0  9995
2 49084  87.9130   5.8088 0002187  89.2217 270.9166 13.17648565233635
ONEWEB-0296             
1 49085U 21075L   26168.53885860 -.00000403  00000+0 -11559-2 0  9998
2 49085  87.8952 350.5963 0002158  93.4672 266.6703 13.12443646234626
ONEWEB-0297             
1 49086U 21075M   26168.49312377  .00000441  00000+0  11908-2 0  9990
2 49086  87.8936 350.6163 0001945  90.3404 269.7948 13.12444378235229
ONEWEB-0298             
1 49087U 21075N   26168.49584946  .00000015  00000+0  57750-5 0  9999
2 49087  87.9132   5.8061 0001914  84.3650 275.7700 13.17647886233660
ONEWEB-0299             
1 49088U 21075P   26168.49739915  .00000007  00000+0 -14798-4 0  9994
2 49088  87.9142   5.7860 0002046  86.4611 273.6754 13.17650274233644
ONEWEB-0300             
1 49089U 21075Q   26168.48549242  .00000317  00000+0  84447-3 0  9996
2 49089  87.8948 350.5972 0001807  78.2214 281.9117 13.12445311235247
ONEWEB-0301             
1 49090U 21075R   26168.54563044 -.00000352  00000+0 -10129-2 0  9997
2 49090  87.8947 350.5835 0001688  80.5453 279.5866 13.12443990234619
ONEWEB-0302             
1 49091U 21075S   26168.53208425 -.00000357  00000+0 -10271-2 0  9999
2 49091  87.8950 350.5978 0001959  99.6493 260.4857 13.12443776234596
ONEWEB-0304             
1 49092U 21075T   26168.54802100  .00000057  00000+0  11380-3 0  9999
2 49092  87.9133   5.7983 0002010  87.9770 272.1592 13.17649385233621
ONEWEB-0305             
1 49093U 21075U   26168.54127330 -.00000003  00000+0 -40948-4 0  9991
2 49093  87.9141   5.7841 0002242  85.9349 274.2039 13.17649241233654
ONEWEB-0308             
1 49094U 21075V   26168.52530635 -.00000334  00000+0 -96377-3 0  9999
2 49094  87.8949 350.5912 0001788  90.9664 269.1670 13.12442938234609
ONEWEB-0309             
1 49095U 21075W   26168.54464600 -.00000041  00000+0 -13810-3 0  9996
2 49095  87.9134   5.7918 0001969 102.8946 257.2405 13.17648791233624
ONEWEB-0310             
1 49096U 21075X   26168.54055065 -.00000578  00000+0 -16413-2 0  9994
2 49096  87.8939 350.6100 0001811  91.6542 268.4794 13.12442855235237
ONEWEB-0311             
1 49097U 21075Y   26168.55140029  .00000070  00000+0  14669-3 0  9998
2 49097  87.9134   5.7900 0002268  81.7358 278.4030 13.17650815233676
ONEWEB-0312             
1 49098U 21075Z   26168.49065909 -.00000040  00000+0 -13501-3 0  9998
2 49098  87.9131   5.8128 0002193  91.1434 268.9949 13.17653145233643
ONEWEB-0313             
1 49099U 21075AA  26168.49557171 -.00000013  00000+0 -67137-4 0  9991
2 49099  87.9128   5.8177 0001991  86.3585 273.7774 13.17648516233637
ONEWEB-0314             
1 49100U 21075AB  26168.53790639 -.00000010  00000+0 -60206-4 0  9994
2 49100  87.9141   5.7818 0002238  91.0792 269.0596 13.17649329233615
ONEWEB-0315             
1 49101U 21075AC  26168.51345171  .00000073  00000+0  16679-3 0  9991
2 49101  87.8948 350.5793 0002059  81.7220 278.4142 13.12442477235215
ONEWEB-0316             
1 49102U 21075AD  26168.53819726  .00000093  00000+0  20385-3 0  9997
2 49102  87.9165 335.3861 0001915  92.0003 268.1349 13.18687280237259
ONEWEB-0317             
1 49103U 21075AE  26168.51684039 -.00000111  00000+0 -34355-3 0  9998
2 49103  87.8949 350.6025 0001558 114.4157 245.7135 13.12442642235238
ONEWEB-0318             
1 49104U 21075AF  26168.53482973  .00000056  00000+0  10921-3 0  9993
2 49104  87.9171 335.3883 0001998  86.9021 273.2340 13.18685914237211
ONEWEB-0319             
1 49105U 21075AG  26168.62902035  .00000059  00000+0  11991-3 0  9991
2 49105  87.9133   5.7800 0002190  76.4578 283.6798 13.17650015233663
ONEWEB-0323             
1 49106U 21075AH  26168.49820938  .00000409  00000+0  11027-2 0  9996
2 49106  87.8949 350.5875 0002299  82.0505 278.0885 13.12443608234595
ONEWEB-0329             
1 49107U 21075AJ  26168.48558738 -.00000012  00000+0 -64457-4 0  9991
2 49107  87.9133   5.8091 0002019  88.7855 271.3507 13.17649100233623
ONEWEB-0330             
1 49108U 21075AK  26168.50930266  .00005740  00000+0  14731-1 0  9993
2 49108  87.9132   5.8249 0001436  92.5205 267.6091 13.17695999233669
ONEWEB-0292             
1 49186U 21083A   26168.39409898  .00000111  00000+0  26807-3 0  9993
2 49186  87.8952 320.1969 0001942  91.7512 268.3839 13.13472204230955
ONEWEB-0303             
1 49187U 21083B   26168.53145353  .00000163  00000+0  37977-3 0  9990
2 49187  87.9166 335.3876 0001984  89.6637 270.4723 13.18687492230025
ONEWEB-0306             
1 49188U 21083C   26168.44545622  .00000055  00000+0  10570-3 0  9994
2 49188  87.9170 335.3926 0001763  99.7659 260.3672 13.18687066230059
ONEWEB-0307             
1 49189U 21083D   26168.38816730 -.00000029  00000+0 -11473-3 0  9995
2 49189  87.8955 320.1952 0001951  94.5396 265.5956 13.13470999230952
ONEWEB-0320             
1 49190U 21083E   26168.46568737  .00000006  00000+0 -17528-4 0  9999
2 49190  87.9160 335.4067 0001827  94.5032 265.6309 13.18686178230011
ONEWEB-0321             
1 49191U 21083F   26168.80710073  .00000072  00000+0  14476-3 0  9990
2 49191  87.9195 274.3111 0001827 107.7100 252.4233 13.20772473236916
ONEWEB-0322             
1 49192U 21083G   26168.38391456 -.00000127  00000+0 -38164-3 0  9997
2 49192  87.8952 320.1964 0001414 102.2513 257.8774 13.13468658230948
ONEWEB-0324             
1 49193U 21083H   26168.43871042  .00000024  00000+0  29015-4 0  9998
2 49193  87.9171 335.3994 0001989  97.6604 262.4754 13.18685128230037
ONEWEB-0325             
1 49194U 21083J   26168.51796317 -.00000036  00000+0 -12385-3 0  9995
2 49194  87.9162 335.3920 0001819  91.0361 269.0980 13.18685753230057
ONEWEB-0326             
1 49195U 21083K   26168.45740218  .00000033  00000+0  49788-4 0  9991
2 49195  87.9170 335.4019 0001990  85.9222 274.2138 13.18685450230030
ONEWEB-0327             
1 49196U 21083L   26168.53299824  .00000060  00000+0  11922-3 0  9991
2 49196  87.9163 335.3910 0001929  81.2643 278.8707 13.18685162230065
